{
  "norad_id": 62437,
  "name": "STARLINK-32693",
  "history": [
    {
      "epoch": "2026-03-28T17:59:30.528096",
      "apogee_km": 475.83267583769157,
      "perigee_km": 474.57810297988726,
      "latitude_deg": -25.90844796629864,
      "longitude_deg": 135.66725344001316,
      "semi_major_axis_km": 6853.342389408789,
      "eccentricity": 9.153e-05,
      "inclination_deg": 53.1586,
      "raan_deg": 244.0689,
      "arg_perigee_deg": 87.4018,
      "mean_anomaly_deg": 272.7088,
      "mean_motion_rev_day": 15.30203242
    }
  ]
}